[{"norad_id":"66595","company":"STARLINK","tle_line2":"2 66595  42.9990 229.0356 0001685 262.2938 157.4063 15.68504419  3524","launch_date":"2025-11-22","type":"LEO","tle_line1":"1 66595U 25270H   25340.58335648 -.01905436  00000+0 -18454-1 0  9995","satellite_name":"STARLINK-35711"},{"norad_id":"66596","company":"STARLINK","tle_line2":"2 66596  42.9989 229.0311 0001568 263.5543 158.0608 15.68505779  3522","launch_date":"2025-11-22","type":"LEO","tle_line1":"1 66596U 25270J   25340.58335648 -.01904871  00000+0 -18447-1 0  9990","satellite_name":"STARLINK-35811"},{"norad_id":"66597","company":"STARLINK","tle_line2":"2 66597  42.9990 229.0261 0001604 262.3069 161.2289 15.68500105  3529","launch_date":"2025-11-22","type":"LEO","tle_line1":"1 66597U 25270K   25340.58335648 -.01898818  00000+0 -18385-1 0  9995","satellite_name":"STARLINK-35820"},{"norad_id":"66598","company":"STARLINK","tle_line2":"2 66598  42.9990 229.0212 0001673 260.8863 164.5606 15.68503037  3253","launch_date":"2025-11-22","type":"LEO","tle_line1":"1 66598U 25270L   25340.58335648 -.01898840  00000+0 -18383-1 0  9999","satellite_name":"STARLINK-35981"},{"norad_id":"66599","company":"STARLINK","tle_line2":"2 66599  42.9990 229.0170 0001651 262.7363 164.6313 15.68502285  3417","launch_date":"2025-11-22","type":"LEO","tle_line1":"1 66599U 25270M   25340.58335648 -.01900944  00000+0 -18406-1 0  9995","satellite_name":"STARLINK-35930"},{"norad_id":"66600","company":"STARLINK","tle_line2":"2 66600  42.9990 229.0121 0001603 260.8874 168.3961 15.68503372  3316","launch_date":"2025-11-22","type":"LEO","tle_line1":"1 66600U 25270N   25340.58335648 -.01901833  00000+0 -18416-1 0  9997","satellite_name":"STARLINK-35980"},{"norad_id":"66601","company":"STARLINK","tle_line2":"2 66601  42.9990 229.0071 0001722 261.0606 170.1663 15.68474923  3251","launch_date":"2025-11-22","type":"LEO","tle_line1":"1 66601U 25270P   25340.58335648 -.01877896  00000+0 -18175-1 0  9991","satellite_name":"STARLINK-35978"},{"norad_id":"66602","company":"STARLINK","tle_line2":"2 66602  42.9991 229.0022 0001656 261.5336 171.5862 15.68500986  3312","launch_date":"2025-11-22","type":"LEO","tle_line1":"1 66602U 25270Q   25340.58335648 -.01899980  00000+0 -18397-1 0  9996","satellite_name":"STARLINK-36050"},{"norad_id":"66603","company":"STARLINK","tle_line2":"2 66603  42.9989 228.9970 0001831 267.4609 167.5746 15.68502357  3313","launch_date":"2025-11-22","type":"LEO","tle_line1":"1 66603U 25270R   25340.58335648 -.01901577  00000+0 -18412-1 0  9991","satellite_name":"STARLINK-36048"},{"norad_id":"66604","company":"STARLINK","tle_line2":"2 66604  42.9990 228.9923 0001718 263.0687 173.8810 15.68503149  3419","launch_date":"2025-11-22","type":"LEO","tle_line1":"1 66604U 25270S   25340.58335648 -.01900041  00000+0 -18395-1 0  9997","satellite_name":"STARLINK-35977"},{"norad_id":"66605","company":"STARLINK","tle_line2":"2 66605  42.9989 228.9877 0001604 261.4434 177.4278 15.68501771  3419","launch_date":"2025-11-22","type":"LEO","tle_line1":"1 66605U 25270T   25340.58335648 -.01901004  00000+0 -18408-1 0  9993","satellite_name":"STARLINK-36052"},{"norad_id":"66606","company":"STARLINK","tle_line2":"2 66606  42.9990 228.9780 0001669 262.2847 180.4173 15.68501825  3411","launch_date":"2025-11-22","type":"LEO","tle_line1":"1 66606U 25270U   25340.58335648 -.01898736  00000+0 -18383-1 0  9993","satellite_name":"STARLINK-36063"},{"norad_id":"66607","company":"STARLINK","tle_line2":"2 66607  42.9990 228.9832 0001620 260.6436 180.1446 15.68500745  3312","launch_date":"2025-11-22","type":"LEO","tle_line1":"1 66607U 25270V   25340.58335648 -.01899622  00000+0 -18393-1 0  9990","satellite_name":"STARLINK-35993"},{"norad_id":"66608","company":"STARLINK","tle_line2":"2 66608  42.9991 228.9736 0001662 260.9372 183.6815 15.68501311  3256","launch_date":"2025-11-22","type":"LEO","tle_line1":"1 66608U 25270W   25340.58335648 -.01897662  00000+0 -18371-1 0  9999","satellite_name":"STARLINK-36036"},{"norad_id":"66609","company":"STARLINK","tle_line2":"2 66609  42.9990 228.9691 0001573 261.4725 185.0694 15.68500567  3258","launch_date":"2025-11-22","type":"LEO","tle_line1":"1 66609U 25270X   25340.58335648 -.01901760  00000+0 -18417-1 0  9996","satellite_name":"STARLINK-36034"},{"norad_id":"66610","company":"STARLINK","tle_line2":"2 66610  42.9990 228.9638 0001590 262.3443 186.1087 15.68505716  3526","launch_date":"2025-11-22","type":"LEO","tle_line1":"1 66610U 25270Y   25340.58335648 -.01904722  00000+0 -18446-1 0  9991","satellite_name":"STARLINK-35680"},{"norad_id":"66611","company":"STARLINK","tle_line2":"2 66611  42.9990 228.9588 0001540 262.9865 187.3860 15.68502741  3527","launch_date":"2025-11-22","type":"LEO","tle_line1":"1 66611U 25270Z   25340.58335648 -.01901451  00000+0 -18413-1 0  9992","satellite_name":"STARLINK-35583"},{"norad_id":"66612","company":"STARLINK","tle_line2":"2 66612  42.9989 228.9537 0001598 262.7217 189.5671 15.68504875  3414","launch_date":"2025-11-22","type":"LEO","tle_line1":"1 66612U 25270AA  25340.58335648 -.01905146  00000+0 -18451-1 0  9990","satellite_name":"STARLINK-36039"},{"norad_id":"66613","company":"STARLINK","tle_line2":"2 66613  42.9990 228.9489 0001571 262.7487 191.4598 15.68501963  3418","launch_date":"2025-11-22","type":"LEO","tle_line1":"1 66613U 25270AB  25340.58335648 -.01902304  00000+0 -18422-1 0  9992","satellite_name":"STARLINK-36037"},{"norad_id":"66614","company":"STARLINK","tle_line2":"2 66614  42.9990 228.9391 0001597 266.7471 191.2921 15.68504568  3250","launch_date":"2025-11-22","type":"LEO","tle_line1":"1 66614U 25270AC  25340.58335648 -.01903238  00000+0 -18430-1 0  9999","satellite_name":"STARLINK-36040"},{"norad_id":"66615","company":"STARLINK","tle_line2":"2 66615  42.9990 228.9443 0001664 262.4083 193.7136 15.68504373  3255","launch_date":"2025-11-22","type":"LEO","tle_line1":"1 66615U 25270AD  25340.58335648 -.01904089  00000+0 -18439-1 0  9994","satellite_name":"STARLINK-35988"},{"norad_id":"66616","company":"STARLINK","tle_line2":"2 66616  42.9991 228.9349 0001573 262.4645 197.4916 15.68505211  3524","launch_date":"2025-11-22","type":"LEO","tle_line1":"1 66616U 25270AE  25340.58335648 -.01904805  00000+0 -18447-1 0  9990","satellite_name":"STARLINK-35391"},{"norad_id":"66617","company":"STARLINK","tle_line2":"2 66617  53.1580 217.2848 0001588  88.0210 256.4714 15.74115378  3254","launch_date":"2025-11-23","type":"LEO","tle_line1":"1 66617U 25271A   25340.58335648  .00112508  00000+0  76468-3 0  9999","satellite_name":"STARLINK-35940"},{"norad_id":"66618","company":"STARLINK","tle_line2":"2 66618  53.1580 217.1724 0000950  89.5731 308.1568 15.74233486  3256","launch_date":"2025-11-23","type":"LEO","tle_line1":"1 66618U 25271B   25340.58335648 -.00039718  00000+0 -26765-3 0  9998","satellite_name":"STARLINK-35970"},{"norad_id":"66619","company":"STARLINK","tle_line2":"2 66619  53.1578 217.2680 0000542 105.5706 246.5724 15.74145198  3255","launch_date":"2025-11-23","type":"LEO","tle_line1":"1 66619U 25271C   25340.58335648  .00071839  00000+0  49156-3 0  9996","satellite_name":"STARLINK-35951"},{"norad_id":"66620","company":"STARLINK","tle_line2":"2 66620  53.1582 217.2806 0001231  93.8758 252.5244 15.74132334  3256","launch_date":"2025-11-23","type":"LEO","tle_line1":"1 66620U 25271D   25340.58335648  .00092066  00000+0  62759-3 0  9997","satellite_name":"STARLINK-35936"},{"norad_id":"66621","company":"STARLINK","tle_line2":"2 66621  53.1579 217.1646 0001064  97.3895 303.9533 15.74156603  3256","launch_date":"2025-11-23","type":"LEO","tle_line1":"1 66621U 25271E   25340.58335648  .00027906  00000+0  19447-3 0  9995","satellite_name":"STARLINK-35847"},{"norad_id":"66622","company":"STARLINK","tle_line2":"2 66622  53.1580 217.2642 0001464  90.3222 263.7429 15.74152255  3253","launch_date":"2025-11-23","type":"LEO","tle_line1":"1 66622U 25271F   25340.58335648  .00044450  00000+0  30668-3 0  9997","satellite_name":"STARLINK-35950"},{"norad_id":"66623","company":"STARLINK","tle_line2":"2 66623  53.1575 217.2564 0001211 125.1816 232.6674 15.74111426  3259","launch_date":"2025-11-23","type":"LEO","tle_line1":"1 66623U 25271G   25340.58335648  .00182096  00000+0  12250-2 0  9993","satellite_name":"STARLINK-35920"},{"norad_id":"66624","company":"STARLINK","tle_line2":"2 66624  53.1580 217.2603 0000473  86.4979 269.4596 15.74092298  3254","launch_date":"2025-11-23","type":"LEO","tle_line1":"1 66624U 25271H   25340.58335648  .00191161  00000+0  12854-2 0  9997","satellite_name":"STARLINK-35927"}]