OBJECT_NAME,OBJECT_ID,EPOCH,MEAN_MOTION,ECCENTRICITY,INCLINATION,RA_OF_ASC_NODE,ARG_OF_PERICENTER,MEAN_ANOMALY,EPHEMERIS_TYPE,CLASSIFICATION_TYPE,NORAD_CAT_ID,ELEMENT_SET_NO,REV_AT_EPOCH,BSTAR,MEAN_MOTION_DOT,MEAN_MOTION_DDOT
STARLINK-35711,2025-270H,2025-12-06T14:00:01.999872,15.68504419,.00016853,42.9990,229.0356,262.2938,157.4063,0,U,66595,999,352,-.18453579E-1,-.1905436E-1,0
STARLINK-35811,2025-270J,2025-12-06T14:00:01.999872,15.68505779,.00015682,42.9989,229.0311,263.5543,158.0608,0,U,66596,999,352,-.18447324E-1,-.1904871E-1,0
STARLINK-35820,2025-270K,2025-12-06T14:00:01.999872,15.68500105,.00016049,42.9990,229.0261,262.3069,161.2289,0,U,66597,999,352,-.1838525E-1,-.1898818E-1,0
STARLINK-35981,2025-270L,2025-12-06T14:00:01.999872,15.68503037,.00016737,42.9990,229.0212,260.8863,164.5606,0,U,66598,999,325,-.18382693E-1,-.189884E-1,0
STARLINK-35930,2025-270M,2025-12-06T14:00:01.999872,15.68502285,.00016511,42.9990,229.0170,262.7363,164.6313,0,U,66599,999,341,-.1840643E-1,-.1900944E-1,0
STARLINK-35980,2025-270N,2025-12-06T14:00:01.999872,15.68503372,.00016033,42.9990,229.0121,260.8874,168.3961,0,U,66600,999,331,-.18415695E-1,-.1901833E-1,0
STARLINK-35978,2025-270P,2025-12-06T14:00:01.999872,15.68474923,.00017228,42.9990,229.0071,261.0606,170.1663,0,U,66601,999,325,-.18175235E-1,-.1877896E-1,0
STARLINK-36050,2025-270Q,2025-12-06T14:00:01.999872,15.68500986,.00016569,42.9991,229.0022,261.5336,171.5862,0,U,66602,999,331,-.18396851E-1,-.189998E-1,0
STARLINK-36048,2025-270R,2025-12-06T14:00:01.999872,15.68502357,.00018311,42.9989,228.9970,267.4609,167.5746,0,U,66603,999,331,-.18411799E-1,-.1901577E-1,0
STARLINK-35977,2025-270S,2025-12-06T14:00:01.999872,15.68503149,.00017183,42.9990,228.9923,263.0687,173.8810,0,U,66604,999,341,-.18395355E-1,-.1900041E-1,0
STARLINK-36052,2025-270T,2025-12-06T14:00:01.999872,15.68501771,.0001604,42.9989,228.9877,261.4434,177.4278,0,U,66605,999,341,-.18407858E-1,-.1901004E-1,0
STARLINK-36063,2025-270U,2025-12-06T14:00:01.999872,15.68501825,.0001669,42.9990,228.9780,262.2847,180.4173,0,U,66606,999,341,-.18382528E-1,-.1898736E-1,0
STARLINK-35993,2025-270V,2025-12-06T14:00:01.999872,15.68500745,.00016208,42.9990,228.9832,260.6436,180.1446,0,U,66607,999,331,-.1839342E-1,-.1899622E-1,0
STARLINK-36036,2025-270W,2025-12-06T14:00:01.999872,15.68501311,.00016622,42.9991,228.9736,260.9372,183.6815,0,U,66608,999,325,-.18371244E-1,-.1897662E-1,0
STARLINK-36034,2025-270X,2025-12-06T14:00:01.999872,15.68500567,.00015734,42.9990,228.9691,261.4725,185.0694,0,U,66609,999,325,-.18417291E-1,-.190176E-1,0
STARLINK-35680,2025-270Y,2025-12-06T14:00:01.999872,15.68505716,.00015908,42.9990,228.9638,262.3443,186.1087,0,U,66610,999,352,-.18445558E-1,-.1904722E-1,0
STARLINK-35583,2025-270Z,2025-12-06T14:00:01.999872,15.68502741,.00015409,42.9990,228.9588,262.9865,187.3860,0,U,66611,999,352,-.18412509E-1,-.1901451E-1,0
STARLINK-36039,2025-270AA,2025-12-06T14:00:01.999872,15.68504875,.00015982,42.9989,228.9537,262.7217,189.5671,0,U,66612,999,341,-.18450769E-1,-.1905146E-1,0
STARLINK-36037,2025-270AB,2025-12-06T14:00:01.999872,15.68501963,.00015713,42.9990,228.9489,262.7487,191.4598,0,U,66613,999,341,-.18422181E-1,-.1902304E-1,0
STARLINK-36040,2025-270AC,2025-12-06T14:00:01.999872,15.68504568,.00015975,42.9990,228.9391,266.7471,191.2921,0,U,66614,999,325,-.1843017E-1,-.1903238E-1,0
STARLINK-35988,2025-270AD,2025-12-06T14:00:01.999872,15.68504373,.00016644,42.9990,228.9443,262.4083,193.7136,0,U,66615,999,325,-.18439071E-1,-.1904089E-1,0
STARLINK-35391,2025-270AE,2025-12-06T14:00:01.999872,15.68505211,.00015733,42.9991,228.9349,262.4645,197.4916,0,U,66616,999,352,-.18446992E-1,-.1904805E-1,0
STARLINK-35940,2025-271A,2025-12-06T14:00:01.999872,15.74115378,.00015886,53.1580,217.2848,88.0210,256.4714,0,U,66617,999,325,.76468165E-3,.112508E-2,0
STARLINK-35970,2025-271B,2025-12-06T14:00:01.999872,15.74233486,.00009506,53.1580,217.1724,89.5731,308.1568,0,U,66618,999,325,-.26765273E-3,-.39718E-3,0
STARLINK-35951,2025-271C,2025-12-06T14:00:01.999872,15.74145198,.0000542,53.1578,217.2680,105.5706,246.5724,0,U,66619,999,325,.49155556E-3,.71839E-3,0
STARLINK-35936,2025-271D,2025-12-06T14:00:01.999872,15.74132334,.00012314,53.1582,217.2806,93.8758,252.5244,0,U,66620,999,325,.62759381E-3,.92066E-3,0
STARLINK-35847,2025-271E,2025-12-06T14:00:01.999872,15.74156603,.00010648,53.1579,217.1646,97.3895,303.9533,0,U,66621,999,325,.19447E-3,.27906E-3,0
STARLINK-35950,2025-271F,2025-12-06T14:00:01.999872,15.74152255,.00014646,53.1580,217.2642,90.3222,263.7429,0,U,66622,999,325,.30667565E-3,.4445E-3,0
STARLINK-35920,2025-271G,2025-12-06T14:00:01.999872,15.74111426,.0001211,53.1575,217.2564,125.1816,232.6674,0,U,66623,999,325,.12250247E-2,.182096E-2,0
STARLINK-35927,2025-271H,2025-12-06T14:00:01.999872,15.74092298,.00004731,53.1580,217.2603,86.4979,269.4596,0,U,66624,999,325,.12854436E-2,.191161E-2,0
